[{"name":"IONOSFERA-M 2","line1":"1 61736U 24199B   26177.58140788  .00000049  00000+0  41366-4 0  9998","line2":"2 61736  98.7162  50.5645 0000641  39.3367 320.7857 14.22759142132167"},{"name":"PRSC-EO1","line1":"1 62725U 25012A   26177.62009231  .00008022  00000+0  40071-3 0  9994","line2":"2 62725  97.4228 249.8954 0005551 212.7547 147.3344 15.17721872 79622"},{"name":"BIOMASS","line1":"1 63772U 25090A   26176.41992450  .00000661  00000+0  12495-3 0  9993","line2":"2 63772  98.0741   3.6181 0001429  94.8977 265.2391 14.67536962 61896"},{"name":"GOSAT-GW (IBUKI GW)","line1":"1 64694U 25141A   26177.73555229  .00000933  00000+0  17297-3 0  9996","line2":"2 64694  98.0572 114.8974 0001447  83.8509 276.2860 14.67553109 53241"},{"name":"IONOSFERA-M 3","line1":"1 64876U 25155A   26177.60751876  .00000020  00000+0  28936-4 0  9995","line2":"2 64876  98.6028 139.2755 0001546 141.0592 219.0697 14.21487882 47747"},{"name":"IONOSFERA-M 4","line1":"1 64877U 25155B   26177.64234470  .00000040  00000+0  37906-4 0  9995","line2":"2 64877  98.6027 139.2267 0001379 116.1250 244.0070 14.21490301 47746"},{"name":"MICROCARB","line1":"1 64899U 25156A   26177.45983320  .00000522  00000+0  89977-4 0  9994","line2":"2 64899  97.9921 254.4370 0015431 236.5919 123.3813 14.72532425 49334"},{"name":"CO3D 3","line1":"1 64900U 25156B   26177.53446860  .00004163  00000+0  19532-3 0  9993","line2":"2 64900  97.4334 256.0929 0001765 118.6598 241.4815 15.20198203 50956"},{"name":"CO3D 4","line1":"1 64901U 25156C   26177.53462068  .00004286  00000+0  20101-3 0  9992","line2":"2 64901  97.4335 256.0930 0000449 186.8722 173.2508 15.20199739 50950"},{"name":"CO3D 2","line1":"1 64902U 25156D   26177.56709855  .00004807  00000+0  22500-3 0  9998","line2":"2 64902  97.4334 256.0238 0001507 100.5642 259.5763 15.20205293 50955"},{"name":"CO3D 1","line1":"1 64903U 25156E   26177.56724923  .00004965  00000+0  23234-3 0  9992","line2":"2 64903  97.4333 256.0240 0001376 108.0307 252.1078 15.20199291 50951"},{"name":"PRSC-S1","line1":"1 65055U 25164A   26177.54533608  .00003869  00000+0  26887-3 0  9995","line2":"2 65055  41.1296 235.1048 0005243  51.3104 308.8179 15.06525713 49843"},{"name":"SENTINEL-6B","line1":"1 66514U 25264A   26177.76724747 -.00000075  00000+0 -62063-4 0  9992","line2":"2 66514  66.0408 115.2810 0007941 268.9582  91.0524 12.80929974 28391"},{"name":"CAS500-3","line1":"1 66655U 25274F   26177.69478183  .00001194  00000+0  13481-3 0  9991","line2":"2 66655  97.7444 105.5296 0006959  86.1515 274.0497 14.88342028 31566"},{"name":"CSG-3","line1":"1 67304U 26001A   26177.78552380  .00000293  00000+0  43351-4 0  9993","line2":"2 67304  97.8888   1.2483 0001464  96.2860 263.8520 14.82159797 25886"},{"name":"PRSC-E03","line1":"1 68835U 26092A   26177.66550030  .00002909  00000+0  19922-3 0  9992","line2":"2 68835  38.0020  33.7871 0002670 101.0223 259.0839 15.06715601  9386"},{"name":"CAS500-2","line1":"1 69013U 26100AK  26177.69374323  .00006361  00000+0  29217-3 0  9997","line2":"2 69013  97.3905  75.3780 0009572   4.5035 355.6285 15.20696287  8259"}]