OBJECT_NAME,OBJECT_ID,EPOCH,MEAN_MOTION,ECCENTRICITY,INCLINATION,RA_OF_ASC_NODE,ARG_OF_PERICENTER,MEAN_ANOMALY,EPHEMERIS_TYPE,CLASSIFICATION_TYPE,NORAD_CAT_ID,ELEMENT_SET_NO,REV_AT_EPOCH,BSTAR,MEAN_MOTION_DOT,MEAN_MOTION_DDOT
IONOSFERA-M 2,2024-199B,2026-06-26T13:57:13.640832,14.22759142,.0000641,98.7162,50.5645,39.3367,320.7857,0,U,61736,999,13216,.41365896E-4,.49E-6,0
PRSC-EO1,2025-012A,2026-06-26T14:52:55.975584,15.17721872,.00055515,97.4228,249.8954,212.7547,147.3344,0,U,62725,999,7962,.40070743E-3,.8022E-4,0
BIOMASS,2025-090A,2026-06-25T10:04:41.476800,14.67536962,.0001429,98.0741,3.6181,94.8977,265.2391,0,U,63772,999,6189,.12495E-3,.661E-5,0
GOSAT-GW (IBUKI GW),2025-141A,2026-06-26T17:39:11.717856,14.67553109,.0001447,98.0572,114.8974,83.8509,276.2860,0,U,64694,999,5324,.17297E-3,.933E-5,0
IONOSFERA-M 3,2025-155A,2026-06-26T14:34:49.620864,14.21487882,.00015465,98.6028,139.2755,141.0592,219.0697,0,U,64876,999,4774,.2893556E-4,.2E-6,0
IONOSFERA-M 4,2025-155B,2026-06-26T15:24:58.582080,14.21490301,.00013797,98.6027,139.2267,116.1250,244.0070,0,U,64877,999,4774,.37905935E-4,.4E-6,0
MICROCARB,2025-156A,2026-06-26T11:02:09.588480,14.72532425,.00154311,97.9921,254.4370,236.5919,123.3813,0,U,64899,999,4933,.89977408E-4,.522E-5,0
CO3D 3,2025-156B,2026-06-26T12:49:38.087040,15.20198203,.00017655,97.4334,256.0929,118.6598,241.4815,0,U,64900,999,5095,.19532144E-3,.4163E-4,0
CO3D 4,2025-156C,2026-06-26T12:49:51.226752,15.20199739,.00004496,97.4335,256.0930,186.8722,173.2508,0,U,64901,999,5095,.20101303E-3,.4286E-4,0
CO3D 2,2025-156D,2026-06-26T13:36:37.314720,15.20205293,.00015075,97.4334,256.0238,100.5642,259.5763,0,U,64902,999,5095,.2250041E-3,.4807E-4,0
CO3D 1,2025-156E,2026-06-26T13:36:50.333472,15.20199291,.00013762,97.4333,256.0240,108.0307,252.1078,0,U,64903,999,5095,.23233915E-3,.4965E-4,0
PRSC-S1,2025-164A,2026-06-26T13:05:17.037312,15.06525713,.0005243,41.1296,235.1048,51.3104,308.8179,0,U,65055,999,4984,.26886744E-3,.3869E-4,0
SENTINEL-6B,2025-264A,2026-06-26T18:24:50.181408,12.80929974,.0007941,66.0408,115.2810,268.9582,91.0524,0,U,66514,999,2839,-.62063E-4,-.75E-6,0
CAS500-3,2025-274F,2026-06-26T16:40:29.150112,14.88342028,.0006959,97.7444,105.5296,86.1515,274.0497,0,U,66655,999,3156,.13481E-3,.1194E-4,0
CSG-3,2026-001A,2026-06-26T18:51:09.256320,14.82159797,.0001464,97.8888,1.2483,96.2860,263.8520,0,U,67304,999,2588,.43351E-4,.293E-5,0
PRSC-E03,2026-092A,2026-06-26T15:58:19.225920,15.06715601,.000267,38.0020,33.7871,101.0223,259.0839,0,U,68835,999,938,.19922E-3,.2909E-4,0
CAS500-2,2026-100AK,2026-06-26T16:38:59.415072,15.20696287,.0009572,97.3905,75.3780,4.5035,355.6285,0,U,69013,999,825,.29217E-3,.6361E-4,0
